[{"OBJECT_NAME":"STARLINK-5093","OBJECT_ID":"2023-058R","EPOCH":"2026-03-09T22:20:13.982496","MEAN_MOTION":15.01261708,"ECCENTRICITY":0.00017421,"INCLINATION":97.6039,"RA_OF_ASC_NODE":70.4031,"ARG_OF_PERICENTER":26.497,"MEAN_ANOMALY":333.6343,"EPHEMERIS_TYPE":0,"CLASSIFICATION_TYPE":"U","NORAD_CAT_ID":56332,"ELEMENT_SET_NO":999,"REV_AT_EPOCH":15816,"BSTAR":1.0624616e-5,"MEAN_MOTION_DOT":7.8e-7,"MEAN_MOTION_DDOT":0},{"OBJECT_NAME":"PSLV R\/B","OBJECT_ID":"2007-001E","EPOCH":"2026-03-09T22:10:17.317056","MEAN_MOTION":14.97920804,"ECCENTRICITY":0.00208593,"INCLINATION":98.0304,"RA_OF_ASC_NODE":98.4358,"ARG_OF_PERICENTER":74.2404,"MEAN_ANOMALY":286.1116,"EPHEMERIS_TYPE":0,"CLASSIFICATION_TYPE":"U","NORAD_CAT_ID":29713,"ELEMENT_SET_NO":999,"REV_AT_EPOCH":3805,"BSTAR":0.00025269605,"MEAN_MOTION_DOT":2.927e-5,"MEAN_MOTION_DDOT":0}]
